GOES 14                 
1 35491U 09033A   26121.23323590 -.00000065  00000+0  00000+0 0  9996
2 35491   1.5704  83.5818 0001946 323.7254  63.9425  1.00117740  6129
EWS-G2 (GOES 15)        
1 36411U 10008A   26121.14110887  .00000026  00000+0  00000+0 0  9992
2 36411   1.1532  83.6982 0004360  23.6209 225.8276  1.00273271 59166
GOES 16                 
1 41866U 16071A   26121.25048263 -.00000086  00000+0  00000+0 0  9995
2 41866   0.2237  85.4573 0001332 263.1743 216.0073  1.00271666 34632
GOES 17                 
1 43226U 18022A   26121.11989076 -.00000178  00000+0  00000+0 0  9998
2 43226   0.8185  86.3523 0000706 304.6335 141.7415  1.00271640 29954
GOES 18                 
1 51850U 22021A   26121.24406927  .00000101  00000+0  00000+0 0  9992
2 51850   0.0476  74.6213 0000700  18.4535  76.9685  1.00273250  6124
GOES 19                 
1 60133U 24119A   26121.25628932 -.00000244  00000+0  00000+0 0  9998
2 60133   0.0045  30.2434 0000764  59.9433 146.0778  1.00271907  6499
